STARLINK-5594           
1 55742U 23028B   26070.87266734  .00000163  00000+0  21419-4 0  9996
2 55742  69.9992 239.0904 0002691 269.4705  90.6146 14.98325928166366
STARLINK-5602           
1 55743U 23028C   26070.87683141  .00000722  00000+0  68281-4 0  9991
2 55743  69.9995 239.1069 0003197 269.3690  90.7103 14.98330542166369
STARLINK-5601           
1 55744U 23028D   26070.87284383  .00000706  00000+0  66980-4 0  9993
2 55744  69.9996 239.0896 0003008 267.4324  92.6491 14.98321905166366
STARLINK-5579           
1 55746U 23028F   26071.17724126 -.00001152  00000+0 -88763-4 0  9994
2 55746  70.0002 238.1476 0002141 265.8076  94.2838 14.98327295166413
STARLINK-5539           
1 55747U 23028G   26070.86013632 -.00000106  00000+0 -11306-5 0  9991
2 55747  69.9994 239.0473 0002621 268.0751  92.0108 14.98329415166362
STARLINK-5580           
1 55748U 23028H   26071.18977494  .00002855  00000+0  24707-3 0  9991
2 55748  69.9992 238.1897 0003060 269.5262  90.5547 14.98313891166419
STARLINK-5573           
1 55750U 23028K   26070.85178569  .00000812  00000+0  75840-4 0  9999
2 55750  69.9992 239.0177 0002976 268.3781  91.7037 14.98331407166365
STARLINK-5577           
1 55751U 23028L   26071.19810842  .00000244  00000+0  28206-4 0  9998
2 55751  69.9990 238.2197 0002698 272.5429  87.5421 14.98330747166416
STARLINK-5613           
1 55752U 23028M   26070.89349891  .00001047  00000+0  95477-4 0  9992
2 55752  69.9994 238.7611 0003256 272.6532  87.4255 14.98335884166370
STARLINK-5617           
1 55753U 23028N   26071.17740413 -.00000224  00000+0 -11004-4 0  9992
2 55753  69.9996 238.1480 0002598 270.0236  90.0625 14.98328932166414
STARLINK-5612           
1 55754U 23028P   26070.90184972  .00000393  00000+0  40688-4 0  9990
2 55754  69.9997 238.7896 0003066 268.4378  91.6430 14.98330236166378
STARLINK-5614           
1 55756U 23028R   26070.88515273  .00000090  00000+0  15316-4 0  9995
2 55756  69.9995 238.7314 0002603 270.5544  89.5317 14.98331296166375
STARLINK-5544           
1 55757U 23028S   26071.17306204 -.00000861  00000+0 -64333-4 0  9992
2 55757  69.9999 238.1316 0002858 268.2348  91.8484 14.98335111166410
STARLINK-5072           
1 55758U 23028T   26070.89767458  .00000161  00000+0  21322-4 0  9995
2 55758  69.9996 238.7751 0002943 271.7077  88.3745 14.98330988166373
STARLINK-5532           
1 55760U 23028V   26070.88097802  .00000137  00000+0  19296-4 0  9996
2 55760  69.9994 238.7173 0003199 270.1541  89.9252 14.98334912166376
STARLINK-5611           
1 55761U 23028W   26070.72656023 -.00000230  00000+0 -11440-4 0  9995
2 55761  69.9998 219.5038 0003226 276.6767  83.4025 14.98326445166830
