[{"OBJECT_NAME":"STARLINK-5594","OBJECT_ID":"2023-028B","EPOCH":"2026-03-11T20:56:38.458176","MEAN_MOTION":14.98325928,"ECCENTRICITY":0.0002691,"INCLINATION":69.9992,"RA_OF_ASC_NODE":239.0904,"ARG_OF_PERICENTER":269.4705,"MEAN_ANOMALY":90.6146,"EPHEMERIS_TYPE":0,"CLASSIFICATION_TYPE":"U","NORAD_CAT_ID":55742,"ELEMENT_SET_NO":999,"REV_AT_EPOCH":16636,"BSTAR":2.1419e-5,"MEAN_MOTION_DOT":1.63e-6,"MEAN_MOTION_DDOT":0},{"OBJECT_NAME":"STARLINK-5602","OBJECT_ID":"2023-028C","EPOCH":"2026-03-11T21:02:38.233824","MEAN_MOTION":14.98330542,"ECCENTRICITY":0.0003197,"INCLINATION":69.9995,"RA_OF_ASC_NODE":239.1069,"ARG_OF_PERICENTER":269.369,"MEAN_ANOMALY":90.7103,"EPHEMERIS_TYPE":0,"CLASSIFICATION_TYPE":"U","NORAD_CAT_ID":55743,"ELEMENT_SET_NO":999,"REV_AT_EPOCH":16636,"BSTAR":6.8281e-5,"MEAN_MOTION_DOT":7.22e-6,"MEAN_MOTION_DDOT":0},{"OBJECT_NAME":"STARLINK-5601","OBJECT_ID":"2023-028D","EPOCH":"2026-03-11T20:56:53.706912","MEAN_MOTION":14.98321905,"ECCENTRICITY":0.0003008,"INCLINATION":69.9996,"RA_OF_ASC_NODE":239.0896,"ARG_OF_PERICENTER":267.4324,"MEAN_ANOMALY":92.6491,"EPHEMERIS_TYPE":0,"CLASSIFICATION_TYPE":"U","NORAD_CAT_ID":55744,"ELEMENT_SET_NO":999,"REV_AT_EPOCH":16636,"BSTAR":6.698e-5,"MEAN_MOTION_DOT":7.06e-6,"MEAN_MOTION_DDOT":0},{"OBJECT_NAME":"STARLINK-5579","OBJECT_ID":"2023-028F","EPOCH":"2026-03-12T04:15:13.644864","MEAN_MOTION":14.98327295,"ECCENTRICITY":0.00021411,"INCLINATION":70.0002,"RA_OF_ASC_NODE":238.1476,"ARG_OF_PERICENTER":265.8076,"MEAN_ANOMALY":94.2838,"EPHEMERIS_TYPE":0,"CLASSIFICATION_TYPE":"U","NORAD_CAT_ID":55746,"ELEMENT_SET_NO":999,"REV_AT_EPOCH":16641,"BSTAR":-8.8763122e-5,"MEAN_MOTION_DOT":-1.152e-5,"MEAN_MOTION_DDOT":0},{"OBJECT_NAME":"STARLINK-5539","OBJECT_ID":"2023-028G","EPOCH":"2026-03-11T20:38:35.778048","MEAN_MOTION":14.98329415,"ECCENTRICITY":0.00026212,"INCLINATION":69.9994,"RA_OF_ASC_NODE":239.0473,"ARG_OF_PERICENTER":268.0751,"MEAN_ANOMALY":92.0108,"EPHEMERIS_TYPE":0,"CLASSIFICATION_TYPE":"U","NORAD_CAT_ID":55747,"ELEMENT_SET_NO":999,"REV_AT_EPOCH":16636,"BSTAR":-1.130617e-6,"MEAN_MOTION_DOT":-1.06e-6,"MEAN_MOTION_DDOT":0},{"OBJECT_NAME":"STARLINK-5580","OBJECT_ID":"2023-028H","EPOCH":"2026-03-12T04:33:16.554816","MEAN_MOTION":14.98313891,"ECCENTRICITY":0.00030604,"INCLINATION":69.9992,"RA_OF_ASC_NODE":238.1897,"ARG_OF_PERICENTER":269.5262,"MEAN_ANOMALY":90.5547,"EPHEMERIS_TYPE":0,"CLASSIFICATION_TYPE":"U","NORAD_CAT_ID":55748,"ELEMENT_SET_NO":999,"REV_AT_EPOCH":16641,"BSTAR":0.00024706723,"MEAN_MOTION_DOT":2.855e-5,"MEAN_MOTION_DDOT":0},{"OBJECT_NAME":"STARLINK-5573","OBJECT_ID":"2023-028K","EPOCH":"2026-03-11T20:26:34.283616","MEAN_MOTION":14.98331407,"ECCENTRICITY":0.0002976,"INCLINATION":69.9992,"RA_OF_ASC_NODE":239.0177,"ARG_OF_PERICENTER":268.3781,"MEAN_ANOMALY":91.7037,"EPHEMERIS_TYPE":0,"CLASSIFICATION_TYPE":"U","NORAD_CAT_ID":55750,"ELEMENT_SET_NO":999,"REV_AT_EPOCH":16636,"BSTAR":7.5839825e-5,"MEAN_MOTION_DOT":8.12e-6,"MEAN_MOTION_DDOT":0},{"OBJECT_NAME":"STARLINK-5577","OBJECT_ID":"2023-028L","EPOCH":"2026-03-12T04:45:16.567488","MEAN_MOTION":14.98330747,"ECCENTRICITY":0.00026985,"INCLINATION":69.999,"RA_OF_ASC_NODE":238.2197,"ARG_OF_PERICENTER":272.5429,"MEAN_ANOMALY":87.5421,"EPHEMERIS_TYPE":0,"CLASSIFICATION_TYPE":"U","NORAD_CAT_ID":55751,"ELEMENT_SET_NO":999,"REV_AT_EPOCH":16641,"BSTAR":2.8205562e-5,"MEAN_MOTION_DOT":2.44e-6,"MEAN_MOTION_DDOT":0},{"OBJECT_NAME":"STARLINK-5613","OBJECT_ID":"2023-028M","EPOCH":"2026-03-11T21:26:38.305824","MEAN_MOTION":14.98335884,"ECCENTRICITY":0.0003256,"INCLINATION":69.9994,"RA_OF_ASC_NODE":238.7611,"ARG_OF_PERICENTER":272.6532,"MEAN_ANOMALY":87.4255,"EPHEMERIS_TYPE":0,"CLASSIFICATION_TYPE":"U","NORAD_CAT_ID":55752,"ELEMENT_SET_NO":999,"REV_AT_EPOCH":16637,"BSTAR":9.5477e-5,"MEAN_MOTION_DOT":1.047e-5,"MEAN_MOTION_DDOT":0},{"OBJECT_NAME":"STARLINK-5617","OBJECT_ID":"2023-028N","EPOCH":"2026-03-12T04:15:27.716832","MEAN_MOTION":14.98328932,"ECCENTRICITY":0.00025985,"INCLINATION":69.9996,"RA_OF_ASC_NODE":238.148,"ARG_OF_PERICENTER":270.0236,"MEAN_ANOMALY":90.0625,"EPHEMERIS_TYPE":0,"CLASSIFICATION_TYPE":"U","NORAD_CAT_ID":55753,"ELEMENT_SET_NO":999,"REV_AT_EPOCH":16641,"BSTAR":-1.1003725e-5,"MEAN_MOTION_DOT":-2.24e-6,"MEAN_MOTION_DDOT":0},{"OBJECT_NAME":"STARLINK-5612","OBJECT_ID":"2023-028P","EPOCH":"2026-03-11T21:38:39.815808","MEAN_MOTION":14.98330236,"ECCENTRICITY":0.0003066,"INCLINATION":69.9997,"RA_OF_ASC_NODE":238.7896,"ARG_OF_PERICENTER":268.4378,"MEAN_ANOMALY":91.643,"EPHEMERIS_TYPE":0,"CLASSIFICATION_TYPE":"U","NORAD_CAT_ID":55754,"ELEMENT_SET_NO":999,"REV_AT_EPOCH":16637,"BSTAR":4.0688e-5,"MEAN_MOTION_DOT":3.93e-6,"MEAN_MOTION_DDOT":0},{"OBJECT_NAME":"STARLINK-5614","OBJECT_ID":"2023-028R","EPOCH":"2026-03-11T21:14:37.195872","MEAN_MOTION":14.98331296,"ECCENTRICITY":0.0002603,"INCLINATION":69.9995,"RA_OF_ASC_NODE":238.7314,"ARG_OF_PERICENTER":270.5544,"MEAN_ANOMALY":89.5317,"EPHEMERIS_TYPE":0,"CLASSIFICATION_TYPE":"U","NORAD_CAT_ID":55756,"ELEMENT_SET_NO":999,"REV_AT_EPOCH":16637,"BSTAR":1.5316e-5,"MEAN_MOTION_DOT":9.0e-7,"MEAN_MOTION_DDOT":0},{"OBJECT_NAME":"STARLINK-5544","OBJECT_ID":"2023-028S","EPOCH":"2026-03-12T04:09:12.560256","MEAN_MOTION":14.98335111,"ECCENTRICITY":0.00028586,"INCLINATION":69.9999,"RA_OF_ASC_NODE":238.1316,"ARG_OF_PERICENTER":268.2348,"MEAN_ANOMALY":91.8484,"EPHEMERIS_TYPE":0,"CLASSIFICATION_TYPE":"U","NORAD_CAT_ID":55757,"ELEMENT_SET_NO":999,"REV_AT_EPOCH":16641,"BSTAR":-6.4332516e-5,"MEAN_MOTION_DOT":-8.61e-6,"MEAN_MOTION_DDOT":0},{"OBJECT_NAME":"STARLINK-5072","OBJECT_ID":"2023-028T","EPOCH":"2026-03-11T21:32:39.083712","MEAN_MOTION":14.98330988,"ECCENTRICITY":0.0002943,"INCLINATION":69.9996,"RA_OF_ASC_NODE":238.7751,"ARG_OF_PERICENTER":271.7077,"MEAN_ANOMALY":88.3745,"EPHEMERIS_TYPE":0,"CLASSIFICATION_TYPE":"U","NORAD_CAT_ID":55758,"ELEMENT_SET_NO":999,"REV_AT_EPOCH":16637,"BSTAR":2.1322e-5,"MEAN_MOTION_DOT":1.61e-6,"MEAN_MOTION_DDOT":0},{"OBJECT_NAME":"STARLINK-5532","OBJECT_ID":"2023-028V","EPOCH":"2026-03-11T21:08:36.500928","MEAN_MOTION":14.98334912,"ECCENTRICITY":0.0003199,"INCLINATION":69.9994,"RA_OF_ASC_NODE":238.7173,"ARG_OF_PERICENTER":270.1541,"MEAN_ANOMALY":89.9252,"EPHEMERIS_TYPE":0,"CLASSIFICATION_TYPE":"U","NORAD_CAT_ID":55760,"ELEMENT_SET_NO":999,"REV_AT_EPOCH":16637,"BSTAR":1.9296e-5,"MEAN_MOTION_DOT":1.37e-6,"MEAN_MOTION_DDOT":0},{"OBJECT_NAME":"STARLINK-5611","OBJECT_ID":"2023-028W","EPOCH":"2026-03-11T17:26:14.803872","MEAN_MOTION":14.98326445,"ECCENTRICITY":0.00032264,"INCLINATION":69.9998,"RA_OF_ASC_NODE":219.5038,"ARG_OF_PERICENTER":276.6767,"MEAN_ANOMALY":83.4025,"EPHEMERIS_TYPE":0,"CLASSIFICATION_TYPE":"U","NORAD_CAT_ID":55761,"ELEMENT_SET_NO":999,"REV_AT_EPOCH":16683,"BSTAR":-1.1440193e-5,"MEAN_MOTION_DOT":-2.3e-6,"MEAN_MOTION_DDOT":0}]
